OBJECT_NAME,OBJECT_ID,EPOCH,MEAN_MOTION,ECCENTRICITY,INCLINATION,RA_OF_ASC_NODE,ARG_OF_PERICENTER,MEAN_ANOMALY,EPHEMERIS_TYPE,CLASSIFICATION_TYPE,NORAD_CAT_ID,ELEMENT_SET_NO,REV_AT_EPOCH,BSTAR,MEAN_MOTION_DOT,MEAN_MOTION_DDOT
IRNSS-1A,2013-034A,2026-05-22T20:37:38.469792,1.00280263,.00166187,35.6649,64.2334,185.3754,355.4646,0,U,39199,999,4711,0,.59E-6,0
MUOS-2,2013-036A,2026-06-05T21:10:45.547104,1.00271249,.0050589,4.9737,45.5183,178.0949,160.3225,0,U,39206,999,4707,0,-.1E-7,0
ALPHASAT,2013-038A,2026-06-05T23:16:03.262944,1.00270481,.0002021,2.9976,1.4545,73.3914,193.4243,0,U,39215,999,4390,0,.146E-5,0
INSAT-3D,2013-038B,2026-06-05T22:41:17.698272,1.00268431,.0000849,1.8964,82.6835,350.1240,291.3787,0,U,39216,999,4696,0,-.326E-5,0
WGS F6 (USA 244),2013-041A,2026-06-05T23:08:26.683008,1.00271131,.0000217,0.0177,350.4460,69.6387,46.2520,0,U,39222,999,4595,0,.102E-5,0
ES'HAIL 1,2013-044A,2026-06-05T23:16:29.397216,1.00270117,.0002484,0.0475,356.3551,74.1363,198.5079,0,U,39233,999,4651,0,.156E-5,0
GSAT-7,2013-044B,2026-06-05T23:59:38.741280,1.00271010,.0002937,0.0571,101.9287,190.6510,35.7595,0,U,39234,999,4514,0,-.64E-6,0
AMOS-4,2013-045A,2026-06-05T22:22:56.955360,1.00272962,.0002637,0.0189,85.9149,325.3292,243.8595,0,U,39237,999,4684,0,.2E-6,0
AEHF-3 (USA 246),2013-050A,2026-06-05T21:28:36.336864,1.00269774,.0087829,5.2669,67.2844,188.0783,196.8430,0,U,39256,999,4554,0,.42E-6,0
ASTRA 2E,2013-056A,2026-06-05T13:39:05.827680,1.00273265,.00026112,0.0573,339.5997,95.9640,51.7100,0,U,39285,999,4630,0,.163E-5,0
FM-6,2013-058A,2026-06-05T16:23:08.864736,1.00256096,.00024468,0.0108,36.5239,112.0036,235.0340,0,U,39360,999,4595,0,-.1E-7,0
RADUGA-1M 3,2013-062A,2026-06-04T17:56:00.523392,1.00274022,.00015788,5.9262,72.5137,274.5230,210.1480,0,U,39375,999,4598,0,.164E-5,0
SES-8,2013-071A,2026-06-05T22:59:40.310016,1.00272499,.0002972,0.0131,296.0525,143.2403,255.0187,0,U,39460,999,4431,0,-.257E-5,0
INMARSAT 5-F1,2013-073A,2026-06-05T18:49:07.428864,1.00269292,.00006257,0.0178,359.3793,343.4808,256.2731,0,U,39476,999,4546,0,.41E-6,0
TKSAT-1 (TUPAC KATARI),2013-075A,2026-06-05T23:22:10.367040,1.00273172,.0002737,0.0315,188.9473,237.1232,91.6818,0,U,39481,999,4549,0,-.182E-5,0
EXPRESS-AM5,2013-077A,2026-06-05T22:44:17.411136,1.00269992,.0000664,0.0150,282.3642,75.1222,17.9923,0,U,39487,999,4624,0,-.267E-5,0
GSAT-14,2014-001A,2026-06-05T13:50:00.917664,1.00269392,.00009122,0.0117,327.6926,338.9621,228.8560,0,U,39498,999,4526,0,0,0
THAICOM 6,2014-002A,2026-06-05T23:59:38.741280,1.00270210,.0004629,0.0776,107.7114,353.8298,231.3074,0,U,39500,999,4534,0,-.108E-5,0
TDRS 12,2014-004A,2026-06-05T21:52:44.410368,1.00271446,.0002591,3.9658,18.8963,197.8732,324.8701,0,U,39504,999,4416,0,-.258E-5,0
ABS-2,2014-006A,2026-06-05T23:59:38.741280,1.00271857,.000429,0.0203,55.1404,7.7998,266.3287,0,U,39508,999,4516,0,-.73E-6,0
ATHENA-FIDUS,2014-006B,2026-06-06T00:15:38.646144,1.00274139,.0001472,0.0365,95.6164,340.7284,219.8222,0,U,39509,999,4497,0,.167E-5,0
TURKSAT 4A,2014-007A,2026-06-05T20:33:39.355200,1.00271198,.000155,0.0600,290.4955,44.7748,269.4444,0,U,39522,999,4485,0,.159E-5,0
EXPRESS-AT1,2014-010A,2026-06-06T03:29:47.192640,1.00301631,.0003841,0.2289,85.8474,32.5079,249.7686,0,U,39612,999,4470,0,.48E-6,0
EXPRESS-AT2,2014-010B,2026-06-05T23:26:38.575104,1.00273311,.0000368,0.0150,297.0606,86.6928,278.3064,0,U,39613,999,4438,0,.91E-6,0
AMAZONAS 4A,2014-011A,2026-06-05T21:43:15.317760,1.00274663,.000387,0.0682,209.0644,253.2301,43.8289,0,U,39616,999,4460,0,-.24E-5,0
ASTRA 5B,2014-011B,2026-06-05T13:37:43.459968,1.00273378,.00022324,0.0610,313.5997,114.6619,53.6974,0,U,39617,999,4455,0,.15E-5,0
IRNSS-1B,2014-017A,2026-05-19T20:39:38.653920,1.00280229,.00242269,28.9733,240.8911,185.2284,176.5740,0,U,39635,999,4451,0,.103E-5,0
LUCH-5V,2014-023A,2026-06-06T04:58:38.897760,1.00268523,.0002801,5.1060,69.8596,28.7060,325.4397,0,U,39727,999,4424,0,-.255E-5,0
KAZSAT-3,2014-023B,2026-06-05T05:14:20.866848,1.00269766,.00000738,0.0316,57.7798,20.2373,312.7190,0,U,39728,999,4233,0,.73E-6,0
EUTELSAT 3B,2014-030A,2026-06-05T22:51:36.222048,1.00272327,.0004129,0.0608,350.1953,86.5693,163.6131,0,U,39773,999,4395,0,.33E-6,0
ASIASAT 8 (AMOS-7),2014-046A,2026-06-05T22:34:25.855392,1.00272924,.0001648,0.0174,289.2631,141.7228,267.3144,0,U,40107,999,10203,0,-.32E-5,0
ASIASAT 6,2014-052A,2026-06-05T17:30:31.802400,1.00269615,.000102,0.0184,310.8041,141.3753,184.5165,0,U,40141,999,4296,0,-.349E-5,0
OPTUS 10,2014-054A,2026-06-05T16:54:52.970400,1.00270710,.0002088,0.0779,305.7094,129.1218,229.0227,0,U,40146,999,4291,0,-.135E-5,0
MEASAT-3B,2014-054B,2026-06-05T23:35:38.580288,1.00273455,.0003188,0.0409,38.4599,25.9687,275.3725,0,U,40147,999,4279,0,-.229E-5,0
HIMAWARI-8,2014-060A,2026-06-05T22:44:24.899424,1.00271882,.0000929,0.0149,38.8205,55.0701,282.2629,0,U,40267,999,4264,0,-.263E-5,0
IRNSS-1C,2014-061A,2026-06-05T20:52:04.050048,1.00271117,.0022585,6.4898,89.1421,1.1724,200.0255,0,U,40269,999,4257,0,-.149E-5,0
INTELSAT 30 (IS-30),2014-062A,2026-06-05T23:19:55.583040,1.00269128,.0001026,0.0248,46.8492,354.0943,108.3631,0,U,40271,999,668,0,-.138E-5,0
ARSAT 1,2014-062B,2026-06-05T21:43:52.759200,1.00271135,.0001944,0.0392,60.8752,12.1139,75.5216,0,U,40272,999,4251,0,-.247E-5,0
EUTELSAT 53A,2014-064A,2026-06-05T17:40:03.240768,1.00272314,.00007287,0.0169,298.7452,228.8058,44.6285,0,U,40277,999,4145,0,.11E-5,0
GSAT-16,2014-078A,2026-06-05T23:26:38.575104,1.00271523,.000788,0.0617,93.7731,350.5621,216.8006,0,U,40332,999,4199,0,.98E-6,0
DIRECTV 14,2014-078B,2026-06-05T23:11:25.461024,1.00270815,.0000396,0.0095,330.1162,197.3308,335.5689,0,U,40333,999,4193,0,-.113E-5,0
YAMAL 401,2014-082A,2026-06-06T03:52:21.852192,1.00271513,.0000528,0.0134,317.8166,284.5704,160.2377,0,U,40345,999,4180,0,0,0
ASTRA 2G,2014-089A,2026-06-05T15:21:44.290080,1.00270072,.00051476,0.0484,6.5430,52.5308,93.6300,0,U,40364,999,4185,0,.162E-5,0
FENGYUN 2G,2014-090A,2026-06-05T15:42:09.840384,1.00278137,.00035535,5.6094,72.9555,153.6086,2.6058,0,U,40367,999,4188,0,-.291E-5,0
MUOS-3,2015-002A,2026-06-05T21:59:59.659008,1.00272196,.0051525,4.5001,43.4768,178.6546,346.7703,0,U,40374,999,4147,0,-.116E-5,0
INMARSAT 5-F2,2015-005A,2026-06-05T21:48:37.303776,1.00271995,.0000541,0.0176,356.9078,198.0619,331.5131,0,U,40384,999,4088,0,-.273E-5,0
ABS-3A,2015-010A,2026-06-05T22:03:29.325024,1.00269179,.000174,0.0176,61.5651,333.0398,187.6109,0,U,40424,999,4126,0,-.14E-6,0
EUTELSAT 115 WEST B,2015-010B,2026-06-05T16:23:38.817024,1.00272279,.00002139,0.0131,151.0818,113.9340,120.1140,0,U,40425,999,4127,0,-.13E-6,0
EXPRESS-AM7,2015-012A,2026-06-06T00:15:38.646144,1.00272863,.0003294,0.0150,46.9758,34.5915,216.7725,0,U,40505,999,4089,0,.163E-5,0
BEIDOU-3S IGSO-1S,2015-019A,2026-06-05T20:47:47.747040,1.00253453,.00385376,49.2179,295.5981,191.1976,171.8396,0,U,40549,999,4096,0,-.162E-5,0
THOR 7,2015-022A,2026-06-05T22:04:06.763872,1.00271066,.0002748,0.0057,346.7631,91.3274,146.6348,0,U,40613,999,4070,0,.4E-7,0
TURKMENALEM52E/MONACOSAT,2015-023A,2026-06-06T00:07:38.923104,1.00272414,.0003103,0.0438,81.9795,351.0159,235.3601,0,U,40617,999,4073,0,.117E-5,0
DIRECTV 15,2015-026A,2026-06-05T13:24:40.648320,1.00275794,.00001718,0.0173,3.8212,199.1088,149.3472,0,U,40663,999,4034,0,-.91E-6,0
SKY MEXICO-1,2015-026B,2026-06-05T23:21:35.233344,1.00272441,.0002291,0.0104,29.3039,62.0381,74.6573,0,U,40664,999,4034,0,-.222E-5,0
METEOSAT-11 (MSG-4),2015-034A,2026-06-05T22:06:36.526176,1.00276798,.0001659,3.1742,71.1720,4.6511,159.5592,0,U,40732,999,710,0,.76E-6,0
STAR ONE C4,2015-034B,2026-06-05T13:11:02.374656,1.00270300,.00025739,0.0213,351.4199,77.4948,312.8268,0,U,40733,999,3989,0,-.252E-5,0
WGS F7 (USA 263),2015-036A,2026-06-05T15:19:01.794144,1.00269663,.00001788,0.0020,354.4419,252.2590,52.1001,0,U,40746,999,3975,0,.3E-6,0
INTELSAT 34 (IS-34),2015-039A,2026-06-05T20:05:52.789056,1.00272098,.0000367,0.0086,346.6634,38.6986,114.8818,0,U,40874,999,3952,0,-.273E-5,0
EUTELSAT 8 WEST B,2015-039B,2026-06-05T22:02:06.954720,1.00271283,.000384,0.0639,350.4467,81.8223,144.6062,0,U,40875,999,3954,0,-.53E-6,0
GSAT-6,2015-041A,2026-06-05T22:27:56.477376,1.00271858,.0003374,1.8913,82.7279,348.1340,243.0052,0,U,40880,999,3948,0,-.147E-5,0
INMARSAT 5-F3,2015-042A,2026-06-05T12:31:38.595936,1.00270499,.00004645,0.0175,352.6614,108.5194,160.3182,0,U,40882,999,3945,0,.63E-6,0
MUOS-4,2015-044A,2026-06-05T23:45:51.736032,1.00272319,.0059672,4.3085,42.1703,4.6541,279.0883,0,U,40887,999,3944,0,-.81E-6,0
TJS-1,2015-046A,2026-06-05T22:48:32.004288,1.00273093,.000588,0.2936,85.0003,353.4844,313.0733,0,U,40892,999,3945,0,-.143E-5,0
EXPRESS-AM8,2015-048A,2026-06-05T15:09:30.462048,1.00271852,.0000156,0.0160,298.9597,150.8380,17.6407,0,U,40895,999,3923,0,-.99E-6,0
BEIDOU-3S IGSO-2S,2015-053A,2026-06-05T18:12:21.694752,1.00262312,.00649479,49.2404,258.9193,192.0437,172.0457,0,U,40938,999,3924,0,-.135E-5,0
SKY MUSTER 1 (NBN1A),2015-054A,2026-06-05T15:15:38.621952,1.00271591,.00018703,0.0226,337.1629,115.1941,170.8590,0,U,40940,999,3914,0,0,0
ARSAT 2,2015-054B,2026-06-05T23:23:55.198752,1.00271092,.0002188,0.0417,66.9861,357.5080,99.8984,0,U,40941,999,3919,0,-.212E-5,0
MORELOS 3,2015-056A,2026-06-05T23:14:48.571872,1.00271074,.000173,3.1782,14.7840,351.9128,123.2854,0,U,40946,999,3917,0,-.31E-6,0
APSTAR-9,2015-059A,2026-06-06T04:39:38.612160,1.00271238,.000217,0.0152,344.4757,193.9757,288.0960,0,U,40982,999,3901,0,-.253E-5,0
TURKSAT 4B,2015-060A,2026-06-06T00:07:38.923104,1.00275953,.0002367,0.0174,349.1338,86.0660,231.1842,0,U,40984,999,3898,0,.127E-5,0
ZHONGXING-2C,2015-063A,2026-06-06T03:42:21.623616,1.00269620,.0007523,0.2448,90.4708,95.7027,227.4278,0,U,41021,999,3886,0,-.31E-5,0
GSAT-15,2015-065A,2026-06-05T22:31:03.676800,1.00271204,.000418,0.0467,114.6322,323.2410,247.7685,0,U,41028,999,3868,0,-.245E-5,0
BADR-7 (ARABSAT-6B),2015-065B,2026-06-05T23:16:29.328960,1.00269702,.0003141,0.0415,240.8612,316.5066,72.1545,0,U,41029,999,3865,0,.157E-5,0
